STARLINK-36167          
1 67011U 25293J   26162.56782316  .00001586  00000+0  14074-3 0  9999
2 67011  70.0030 217.6041 0002818 276.3829  83.7009 14.98318549 28957
STARLINK-36175          
1 67012U 25293K   26162.55530909  .00000405  00000+0  41702-4 0  9996
2 67012  70.0007 217.9581 0003770 269.1325  90.9402 14.98329778 28945
STARLINK-35856          
1 67013U 25293L   26162.54695935  .00000799  00000+0  74782-4 0  9997
2 67013  70.0007 217.9300 0004165 267.2224  92.8458 14.98332103 28949
STARLINK-36207          
1 67014U 25293M   26162.53860477  .00008683  00000+0  73393-3 0  9998
2 67014  70.0002 217.8999 0003356 265.1387  94.9389 14.98366071 28943
STARLINK-36093          
1 67015U 25293N   26162.58869486  .00004569  00000+0  39039-3 0  9991
2 67015  70.0005 217.6747 0003716 269.7320  90.3413 14.98337753 28957
STARLINK-36120          
1 67016U 25293P   26162.53025993  .00002759  00000+0  23891-3 0  9992
2 67016  70.0009 217.8712 0004211 269.3743  90.6933 14.98336683 28942
STARLINK-35498          
1 67017U 25293Q   26162.58032419  .00001941  00000+0  17043-3 0  9993
2 67017  70.0002 217.6436 0003764 267.9330  92.1398 14.98335250 28957
STARLINK-36106          
1 67018U 25293R   26162.57198006  .00000669  00000+0  63903-4 0  9991
2 67018  70.0005 217.6171 0003554 265.6539  94.4214 14.98329045 28957
STARLINK-35688          
1 67019U 25293S   26162.55964757  .00002003  00000+0  17563-3 0  9998
2 67019  70.0010 217.9725 0003876 267.4403  92.6312 14.98333298 28942
STARLINK-36172          
1 67020U 25293T   26162.59301326  .00001060  00000+0  96586-4 0  9996
2 67020  70.0004 217.6878 0003412 270.0077  90.0691 14.98335934 28947
STARLINK-36184          
1 67021U 25293U   26162.54294898  .00001330  00000+0  11919-3 0  9993
2 67021  70.0005 217.9137 0003826 269.1121  90.9599 14.98333516 28948
STARLINK-36209          
1 67022U 25293V   26162.57631696  .00001693  00000+0  14964-3 0  9993
2 67022  70.0004 217.6287 0003611 268.0185  92.0560 14.98334247 28955
STARLINK-36191          
1 67023U 25293W   26162.55129964  .00001554  00000+0  13799-3 0  9993
2 67023  70.0007 217.9438 0003708 268.5150  91.5584 14.98332347 28942
STARLINK-36192          
1 67024U 25293X   26162.53460038  .00000586  00000+0  56917-4 0  9996
2 67024  70.0006 217.8837 0004046 268.9680  91.1015 14.98332302 28948
STARLINK-36178          
1 67025U 25293Y   26162.58466481  .00002174  00000+0  18992-3 0  9995
2 67025  70.0004 217.6574 0003539 268.8617  91.2136 14.98334762 28956
STARLINK-36176          
1 67026U 25293Z   26162.56380502  .00000942  00000+0  86720-4 0  9999
2 67026  70.0004 217.5842 0003991 269.5369  90.5333 14.98324446 28946
STARLINK-36171          
1 67027U 25293AA  26162.56796895  .00002367  00000+0  20608-3 0  9991
2 67027  70.0004 217.6014 0003650 269.8033  90.2708 14.98335587 28954
STARLINK-36132          
1 67028U 25293AB  26162.54712463  .00000592  00000+0  57442-4 0  9994
2 67028  70.0007 217.9271 0003848 268.8630  91.2088 14.98330585 28941
STARLINK-36190          
1 67029U 25293AC  26162.55547946  .00003866  00000+0  33163-3 0  9998
2 67029  70.0006 217.9581 0004052 270.1600  89.9094 14.98328408 28948
STARLINK-36138          
1 67030U 25294A   26162.49084375  .00019159  00000+0  70367-3 0  9995
2 67030  42.9951 228.4451 0000650 268.0001  92.0776 15.27593024 29147
STARLINK-36150          
1 67031U 25294B   26162.44972800  .00015172  00000+0  55968-3 0  9991
2 67031  43.0042 228.1439 0002492 277.2927  82.7641 15.27581980 29144
STARLINK-36131          
1 67032U 25294C   26162.46128885  .00014324  00000+0  52898-3 0  9997
2 67032  42.9944 228.2223 0001138 117.0678 243.0289 15.27582422 29148
STARLINK-36137          
1 67033U 25294D   26162.45743924  .00012733  00000+0  47140-3 0  9990
2 67033  43.0027 228.2012 0003648 281.4680  78.5762 15.27578134 29148
STARLINK-36140          
1 67034U 25294E   26161.91778678  .00019715  00000+0  72367-3 0  9991
2 67034  43.0007 231.8882 0001565 267.7398  92.3274 15.27596124 29052
STARLINK-36085          
1 67035U 25294F   26161.92035304  .00013798  00000+0  50980-3 0  9997
2 67035  43.0035 231.9042 0001841 265.8179  94.2462 15.27591668 29054
STARLINK-36125          
1 67036U 25294G   26162.47925925  .00012428  00000+0  45990-3 0  9990
2 67036  42.9958 228.3522 0000475 172.8504 187.2355 15.27612603 29148
STARLINK-35732          
1 67037U 25294H   26161.91263856  .00016668  00000+0  61347-3 0  9991
2 67037  42.9957 231.8469 0000197 147.8653 212.2211 15.27599629 29057
STARLINK-35775          
1 67038U 25294J   26161.87794923  .00021198  00000+0  77734-3 0  9992
2 67038  42.9978 231.5813 0002204 276.4980  83.5621 15.27591312 29060
STARLINK-35705          
1 67039U 25294K   26161.49077183  .00024984  00000+0  91372-3 0  9993
2 67039  42.9993 233.8313 0000357 228.3614 131.7208 15.27602849 28991
STARLINK-35786          
1 67040U 25294L   26161.91007127  .00020228  00000+0  74216-3 0  9998
2 67040  43.0056 231.8315 0001827 273.6478  86.4165 15.27597753 29052
