OBJECT_NAME,OBJECT_ID,EPOCH,MEAN_MOTION,ECCENTRICITY,INCLINATION,RA_OF_ASC_NODE,ARG_OF_PERICENTER,MEAN_ANOMALY,EPHEMERIS_TYPE,CLASSIFICATION_TYPE,NORAD_CAT_ID,ELEMENT_SET_NO,REV_AT_EPOCH,BSTAR,MEAN_MOTION_DOT,MEAN_MOTION_DDOT
STARLINK-36167,2025-293J,2026-06-11T13:37:39.921024,14.98318549,.0002818,70.0030,217.6041,276.3829,83.7009,0,U,67011,999,2895,.14074E-3,.1586E-4,0
STARLINK-36175,2025-293K,2026-06-11T13:19:38.705376,14.98329778,.000377,70.0007,217.9581,269.1325,90.9402,0,U,67012,999,2894,.41702E-4,.405E-5,0
STARLINK-35856,2025-293L,2026-06-11T13:07:37.287840,14.98332103,.0004165,70.0007,217.9300,267.2224,92.8458,0,U,67013,999,2894,.74782E-4,.799E-5,0
STARLINK-36207,2025-293M,2026-06-11T12:55:35.452128,14.98366071,.0003356,70.0002,217.8999,265.1387,94.9389,0,U,67014,999,2894,.73393E-3,.8683E-4,0
STARLINK-36093,2025-293N,2026-06-11T14:07:43.235904,14.98337753,.0003716,70.0005,217.6747,269.7320,90.3413,0,U,67015,999,2895,.39039E-3,.4569E-4,0
STARLINK-36120,2025-293P,2026-06-11T12:43:34.457952,14.98336683,.0004211,70.0009,217.8712,269.3743,90.6933,0,U,67016,999,2894,.23891E-3,.2759E-4,0
STARLINK-35498,2025-293Q,2026-06-11T13:55:40.010016,14.98335250,.0003764,70.0002,217.6436,267.9330,92.1398,0,U,67017,999,2895,.17043E-3,.1941E-4,0
STARLINK-36106,2025-293R,2026-06-11T13:43:39.077184,14.98329045,.0003554,70.0005,217.6171,265.6539,94.4214,0,U,67018,999,2895,.63903E-4,.669E-5,0
STARLINK-35688,2025-293S,2026-06-11T13:25:53.550048,14.98333298,.0003876,70.0010,217.9725,267.4403,92.6312,0,U,67019,999,2894,.17563E-3,.2003E-4,0
STARLINK-36172,2025-293T,2026-06-11T14:13:56.345664,14.98335934,.0003412,70.0004,217.6878,270.0077,90.0691,0,U,67020,999,2894,.96586E-4,.106E-4,0
STARLINK-36184,2025-293U,2026-06-11T13:01:50.791872,14.98333516,.0003826,70.0005,217.9137,269.1121,90.9599,0,U,67021,999,2894,.11919E-3,.133E-4,0
STARLINK-36209,2025-293V,2026-06-11T13:49:53.785344,14.98334247,.0003611,70.0004,217.6287,268.0185,92.0560,0,U,67022,999,2895,.14964E-3,.1693E-4,0
STARLINK-36191,2025-293W,2026-06-11T13:13:52.288896,14.98332347,.0003708,70.0007,217.9438,268.5150,91.5584,0,U,67023,999,2894,.13799E-3,.1554E-4,0
STARLINK-36192,2025-293X,2026-06-11T12:49:49.472832,14.98332302,.0004046,70.0006,217.8837,268.9680,91.1015,0,U,67024,999,2894,.56917E-4,.586E-5,0
STARLINK-36178,2025-293Y,2026-06-11T14:01:55.039584,14.98334762,.0003539,70.0004,217.6574,268.8617,91.2136,0,U,67025,999,2895,.18992E-3,.2174E-4,0
STARLINK-36176,2025-293Z,2026-06-11T13:31:52.753728,14.98324446,.0003991,70.0004,217.5842,269.5369,90.5333,0,U,67026,999,2894,.8672E-4,.942E-5,0
STARLINK-36171,2025-293AA,2026-06-11T13:37:52.517280,14.98335587,.000365,70.0004,217.6014,269.8033,90.2708,0,U,67027,999,2895,.20608E-3,.2367E-4,0
STARLINK-36132,2025-293AB,2026-06-11T13:07:51.568032,14.98330585,.0003848,70.0007,217.9271,268.8630,91.2088,0,U,67028,999,2894,.57442E-4,.592E-5,0
STARLINK-36190,2025-293AC,2026-06-11T13:19:53.425344,14.98328408,.0004052,70.0006,217.9581,270.1600,89.9094,0,U,67029,999,2894,.33163E-3,.3866E-4,0
STARLINK-36138,2025-294A,2026-06-11T11:46:48.900000,15.27593024,.000065,42.9951,228.4451,268.0001,92.0776,0,U,67030,999,2914,.70367E-3,.19159E-3,0
STARLINK-36150,2025-294B,2026-06-11T10:47:36.499200,15.27581980,.0002492,43.0042,228.1439,277.2927,82.7641,0,U,67031,999,2914,.55968E-3,.15172E-3,0
STARLINK-36131,2025-294C,2026-06-11T11:04:15.356640,15.27582422,.0001138,42.9944,228.2223,117.0678,243.0289,0,U,67032,999,2914,.52898E-3,.14324E-3,0
STARLINK-36137,2025-294D,2026-06-11T10:58:42.750336,15.27578134,.0003648,43.0027,228.2012,281.4680,78.5762,0,U,67033,999,2914,.4714E-3,.12733E-3,0
STARLINK-36140,2025-294E,2026-06-10T22:01:36.777792,15.27596124,.00015653,43.0007,231.8882,267.7398,92.3274,0,U,67034,999,2905,.72366767E-3,.19715E-3,0
STARLINK-36085,2025-294F,2026-06-10T22:05:18.502656,15.27591668,.00018418,43.0035,231.9042,265.8179,94.2462,0,U,67035,999,2905,.50979626E-3,.13798E-3,0
STARLINK-36125,2025-294G,2026-06-11T11:30:07.999200,15.27612603,.0000475,42.9958,228.3522,172.8504,187.2355,0,U,67036,999,2914,.4599E-3,.12428E-3,0
STARLINK-35732,2025-294H,2026-06-10T21:54:11.971584,15.27599629,.00001976,42.9957,231.8469,147.8653,212.2211,0,U,67037,999,2905,.6134662E-3,.16668E-3,0
STARLINK-35775,2025-294J,2026-06-10T21:04:14.813472,15.27591312,.00022042,42.9978,231.5813,276.4980,83.5621,0,U,67038,999,2906,.7773371E-3,.21198E-3,0
STARLINK-35705,2025-294K,2026-06-10T11:46:42.686112,15.27602849,.00003574,42.9993,233.8313,228.3614,131.7208,0,U,67039,999,2899,.91372094E-3,.24984E-3,0
STARLINK-35786,2025-294L,2026-06-10T21:50:30.157728,15.27597753,.00018276,43.0056,231.8315,273.6478,86.4165,0,U,67040,999,2905,.74216307E-3,.20228E-3,0
